OSCAR 7 (AO-7)          
1 07530U 74089B   26115.95702641 -.00000031  00000+0  95566-4 0  9991
2 07530 101.9931 128.6547 0011961 229.6194 199.9459 12.53697171353970
PHASE 3B (AO-10)        
1 14129U 83058B   26115.43941508  .00000058  00000+0  00000+0 0  9991
2 14129  25.8952 228.3573 6029561 101.1190 328.2592  2.05871318294407
UOSAT 2 (UO-11)         
1 14781U 84021B   26115.86533004  .00001408  00000+0  14934-3 0  9996
2 14781  97.8018  82.0428 0007770   9.0173 351.1184 14.90654729249332
LUSAT (LO-19)           
1 20442U 90005G   26115.78541409  .00000110  00000+0  56077-4 0  9999
2 20442  98.8886 136.1385 0011611   5.6944 354.4370 14.34106019894888
EYESAT A (AO-27)        
1 22825U 93061C   26115.76645025  .00000069  00000+0  43302-4 0  9998
2 22825  98.6906 183.1918 0007303 251.4174 108.6215 14.30927492699500
ITAMSAT (IO-26)         
1 22826U 93061D   26115.76145740  .00000075  00000+0  45331-4 0  9999
2 22826  98.6853 183.0989 0007974 232.8581 127.1874 14.31352931699810
RADIO ROSTO (RS15)      
1 23439U 94085A   26115.87811298 -.00000048  00000+0 -14476-3 0  9994
2 23439  64.8201  27.8138 0154447  13.3925 347.1030 11.27583701290005
JAS-2 (FO-29)           
1 24278U 96046B   26115.59447711 -.00000004  00000+0  34217-4 0  9996
2 24278  98.5303 331.6515 0349018 232.8208 124.0594 13.53271563466059
TECHSAT 1B (GO-32)      
1 25397U 98043D   26115.94389757  .00000065  00000+0  48241-4 0  9990
2 25397  99.0061 107.3893 0001793  43.5469 316.5850 14.24417684443892
ISS (ZARYA)             
1 25544U 98067A   26115.61933538  .00010271  00000+0  19457-3 0  9992
2 25544  51.6320 200.2872 0006949 349.7097  10.3748 15.48952974563604
PCSAT (NO-44)           
1 26931U 01043C   26115.84473577  .00000123  00000+0  76957-4 0  9992
2 26931  67.0528  19.6518 0006513 263.9909  96.0451 14.31935056282952
SAUDISAT 1C (SO-50)     
1 27607U 02058C   26115.82574773  .00001145  00000+0  15231-3 0  9990
2 27607  64.5516 290.9753 0075587 271.9918  87.2533 14.82928015256691
CUTE-1 (CO-55)          
1 27844U 03031E   26115.77207239  .00000259  00000+0  13095-3 0  9990
2 27844  98.6757 124.9877 0009142 345.2337  14.8573 14.24301725184213
CUBESAT XI-IV (CO-57)   
1 27848U 03031J   26115.94518094  .00000257  00000+0  13187-3 0  9997
2 27848  98.6790 124.9135 0009431   3.4724 356.6519 14.23591802183947
MOZHAETS 4 (RS22)       
1 27939U 03042A   26115.94021270  .00000934  00000+0  15234-3 0  9992
2 27939  98.3474 298.8267 0012544  75.8922  84.8120 14.73370253207858
CUBESAT XI-V            
1 28895U 05043F   26115.40187729  .00001332  00000+0  21784-3 0  9990
2 28895  98.2923 269.9383 0014310  18.3896 341.7825 14.72487588 93984
